start=new Date('2022-07-27T00:00:00.000Z').valueOf();
sats=[{"REV_AT_EPOCH":"130","BSTAR":"-0.00177260000000","TLE_LINE2":"2 52579  53.2199 307.7856 0001539  56.0673  24.4182 15.08851716  1307","SEMIMAJOR_AXIS":"6917.845","FILE":"3522469","TIME_SYSTEM":"UTC","RA_OF_ASC_NODE":"307.7856","RCS_SIZE":"LARGE","APOAPSIS":"540.774","GP_ID":"208932619","MEAN_ELEMENT_THEORY":"SGP4","ELEMENT_SET_NO":"999","TLE_LINE1":"1 52579U 22051AV  22207.91667824 -.00028397  00000-0 -17726-2 0  9990","MEAN_ANOMALY":"24.4182","EPOCH":"2022-07-26T22:00:00.999936","DECAY_DATE":null,"PERIAPSIS":"538.645","NORAD_CAT_ID":"52579","PERIOD":"95.437","MEAN_MOTION_DOT":"-0.00028397","INCLINATION":"53.2199","REF_FRAME":"TEME","COUNTRY_CODE":"US","OBJECT_NAME":"STARLINK-3893","ECCENTRICITY":"0.00015390","OBJECT_ID":"2022-051AV","MEAN_MOTION":"15.08851716","ARG_OF_PERICENTER":"56.0673","LAUNCH_DATE":"2022-05-13","SITE":"AFWTR","MEAN_MOTION_DDOT":"0.0000000000000","CENTER_NAME":"EARTH","OBJECT_TYPE":"PAYLOAD","CLASSIFICATION_TYPE":"U","EPHEMERIS_TYPE":"0"},{"EPHEMERIS_TYPE":"0","CLASSIFICATION_TYPE":"U","OBJECT_TYPE":"PAYLOAD","CENTER_NAME":"EARTH","SITE":"AFWTR","MEAN_MOTION_DDOT":"0.0000000000000","LAUNCH_DATE":"2022-05-13","MEAN_MOTION":"15.08862096","ARG_OF_PERICENTER":"52.4926","ECCENTRICITY":"0.00016490","OBJECT_ID":"2022-051AW","COUNTRY_CODE":"US","OBJECT_NAME":"STARLINK-3919","INCLINATION":"53.2206","REF_FRAME":"TEME","MEAN_MOTION_DOT":"-0.00029214","NORAD_CAT_ID":"52580","PERIOD":"95.436","PERIAPSIS":"538.537","DECAY_DATE":null,"EPOCH":"2022-07-26T22:00:00.999936","MEAN_ANOMALY":"8.0854","TLE_LINE1":"1 52580U 22051AW  22207.91667824 -.00029214  00000-0 -18238-2 0  9990","ELEMENT_SET_NO":"999","MEAN_ELEMENT_THEORY":"SGP4","APOAPSIS":"540.819","GP_ID":"208907424","FILE":"3522452","TIME_SYSTEM":"UTC","RA_OF_ASC_NODE":"307.7834","RCS_SIZE":"LARGE","TLE_LINE2":"2 52580  53.2206 307.7834 0001649  52.4926   8.0854 15.08862096 11901","SEMIMAJOR_AXIS":"6917.813","REV_AT_EPOCH":"1190","BSTAR":"-0.00182380000000"},{"MEAN_ANOMALY":"274.9605","TLE_LINE1":"1 52581U 22051AX  22207.91667824 -.01078703  00000-0 -63574-1 0  9991","ELEMENT_SET_NO":"999","NORAD_CAT_ID":"52581","PERIOD":"95.117","PERIAPSIS":"523.203","DECAY_DATE":null,"EPOCH":"2022-07-26T22:00:00.999936","TLE_LINE2":"2 52581  53.2174 292.8146 0001521  47.6726 274.9605 15.13922893  1308","SEMIMAJOR_AXIS":"6902.388","REV_AT_EPOCH":"130","BSTAR":"-0.06357400000000","MEAN_ELEMENT_THEORY":"SGP4","APOAPSIS":"525.302","GP_ID":"208932143","TIME_SYSTEM":"UTC","FILE":"3522469","RA_OF_ASC_NODE":"292.8146","RCS_SIZE":"LARGE","CENTER_NAME":"EARTH","SITE":"AFWTR","MEAN_MOTION_DDOT":"0.0000000000000","LAUNCH_DATE":"2022-05-13","EPHEMERIS_TYPE":"0","CLASSIFICATION_TYPE":"U","OBJECT_TYPE":"PAYLOAD","OBJECT_NAME":"STARLINK-3915","COUNTRY_CODE":"US","INCLINATION":"53.2174","REF_FRAME":"TEME","MEAN_MOTION_DOT":"-0.01078703","MEAN_MOTION":"15.13922893","ARG_OF_PERICENTER":"47.6726","ECCENTRICITY":"0.00015210","OBJECT_ID":"2022-051AX"},{"ARG_OF_PERICENTER":"50.0297","MEAN_MOTION":"15.13338143","OBJECT_ID":"2022-051AY","ECCENTRICITY":"0.00015590","MEAN_MOTION_DOT":"-0.01078272","OBJECT_NAME":"STARLINK-3886","COUNTRY_CODE":"US","REF_FRAME":"TEME","INCLINATION":"53.2174","CLASSIFICATION_TYPE":"U","EPHEMERIS_TYPE":"0","OBJECT_TYPE":"PAYLOAD","SITE":"AFWTR","MEAN_MOTION_DDOT":"0.0000000000000","LAUNCH_DATE":"2022-05-13","CENTER_NAME":"EARTH","GP_ID":"208932827","APOAPSIS":"527.107","RCS_SIZE":"LARGE","RA_OF_ASC_NODE":"292.8116","TIME_SYSTEM":"UTC","FILE":"3522469","MEAN_ELEMENT_THEORY":"SGP4","TLE_LINE2":"2 52582  53.2174 292.8116 0001559  50.0297 237.0263 15.13338143  1307","SEMIMAJOR_AXIS":"6904.165","BSTAR":"-0.06460500000000","REV_AT_EPOCH":"130","DECAY_DATE":null,"EPOCH":"2022-07-26T22:00:00.999936","PERIOD":"95.154","NORAD_CAT_ID":"52582","PERIAPSIS":"524.954","TLE_LINE1":"1 52582U 22051AY  22207.91667824 -.01078272  00000-0 -64605-1 0  9999","ELEMENT_SET_NO":"999","MEAN_ANOMALY":"237.0263"},{"CLASSIFICATION_TYPE":"U","EPHEMERIS_TYPE":"0","OBJECT_TYPE":"PAYLOAD","SITE":"AFWTR","MEAN_MOTION_DDOT":"0.0000000000000","LAUNCH_DATE":"2022-05-13","CENTER_NAME":"EARTH","ARG_OF_PERICENTER":"44.7891","MEAN_MOTION":"15.14218115","OBJECT_ID":"2022-051AZ","ECCENTRICITY":"0.00015480","MEAN_MOTION_DOT":"-0.01078746","OBJECT_NAME":"STARLINK-3895","COUNTRY_CODE":"US","REF_FRAME":"TEME","INCLINATION":"53.2174","DECAY_DATE":null,"EPOCH":"2022-07-26T22:00:00.999936","PERIOD":"95.099","NORAD_CAT_ID":"52583","PERIAPSIS":"522.287","TLE_LINE1":"1 52583U 22051AZ  22207.91667824 -.01078746  00000-0 -63047-1 0  9995","ELEMENT_SET_NO":"999","MEAN_ANOMALY":"295.4052","GP_ID":"208932257","APOAPSIS":"524.424","RCS_SIZE":"LARGE","RA_OF_ASC_NODE":"292.8160","TIME_SYSTEM":"UTC","FILE":"3522469","MEAN_ELEMENT_THEORY":"SGP4","SEMIMAJOR_AXIS":"6901.490","TLE_LINE2":"2 52583  53.2174 292.8160 0001548  44.7891 295.4052 15.14218115  1306","BSTAR":"-0.06304700000000","REV_AT_EPOCH":"130"},{"MEAN_ANOMALY":"251.2286","ELEMENT_SET_NO":"999","TLE_LINE1":"1 52584U 22051BA  22207.91667824 -.01078503  00000-0 -64095-1 0  9991","PERIAPSIS":"524.140","NORAD_CAT_ID":"52584","PERIOD":"95.136","EPOCH":"2022-07-26T22:00:00.999936","DECAY_DATE":null,"REV_AT_EPOCH":"130","BSTAR":"-0.06409500000000","TLE_LINE2":"2 52584  53.2174 292.8131 0001463  53.7056 251.2286 15.13627596  1309","SEMIMAJOR_AXIS":"6903.285","MEAN_ELEMENT_THEORY":"SGP4","TIME_SYSTEM":"UTC","FILE":"3522469","RA_OF_ASC_NODE":"292.8131","RCS_SIZE":"LARGE","APOAPSIS":"526.160","GP_ID":"208932392","CENTER_NAME":"EARTH","LAUNCH_DATE":"2022-05-13","SITE":"AFWTR","MEAN_MOTION_DDOT":"0.0000000000000","OBJECT_TYPE":"PAYLOAD","CLASSIFICATION_TYPE":"U","EPHEMERIS_TYPE":"0","INCLINATION":"53.2174","REF_FRAME":"TEME","COUNTRY_CODE":"US","OBJECT_NAME":"STARLINK-3922","MEAN_MOTION_DOT":"-0.01078503","ECCENTRICITY":"0.00014630","OBJECT_ID":"2022-051BA","MEAN_MOTION":"15.13627596","ARG_OF_PERICENTER":"53.7056"},{"LAUNCH_DATE":"2022-05-13","SITE":"AFWTR","MEAN_MOTION_DDOT":"0.0000000000000","CENTER_NAME":"EARTH","OBJECT_TYPE":"PAYLOAD","EPHEMERIS_TYPE":"0","CLASSIFICATION_TYPE":"U","MEAN_MOTION_DOT":"-0.01078357","INCLINATION":"53.2174","REF_FRAME":"TEME","OBJECT_NAME":"STARLINK-3906","COUNTRY_CODE":"US","ECCENTRICITY":"0.00014590","OBJECT_ID":"2022-051BB","MEAN_MOTION":"15.14808326","ARG_OF_PERICENTER":"48.6669","ELEMENT_SET_NO":"999","TLE_LINE1":"1 52585U 22051BB  22207.91667824 -.01078357  00000-0 -61976-1 0  9994","MEAN_ANOMALY":"326.2368","EPOCH":"2022-07-26T22:00:00.999936","DECAY_DATE":null,"PERIAPSIS":"520.556","NORAD_CAT_ID":"52585","PERIOD":"95.062","REV_AT_EPOCH":"130","BSTAR":"-0.06197600000000","TLE_LINE2":"2 52585  53.2174 292.8185 0001459  48.6669 326.2368 15.14808326  1304","SEMIMAJOR_AXIS":"6899.698","FILE":"3522469","TIME_SYSTEM":"UTC","RCS_SIZE":"MEDIUM","RA_OF_ASC_NODE":"292.8185","APOAPSIS":"522.569","GP_ID":"208932506","MEAN_ELEMENT_THEORY":"SGP4"},{"FILE":"3522469","TIME_SYSTEM":"UTC","RCS_SIZE":"LARGE","RA_OF_ASC_NODE":"292.8173","APOAPSIS":"523.528","GP_ID":"208932735","MEAN_ELEMENT_THEORY":"SGP4","REV_AT_EPOCH":"130","BSTAR":"-0.06251500000000","SEMIMAJOR_AXIS":"6900.594","TLE_LINE2":"2 52586  53.2174 292.8173 0001549  43.9617 313.6561 15.14513260  1308","EPOCH":"2022-07-26T22:00:00.999936","DECAY_DATE":null,"PERIAPSIS":"521.390","NORAD_CAT_ID":"52586","PERIOD":"95.080","ELEMENT_SET_NO":"999","TLE_LINE1":"1 52586U 22051BC  22207.91667824 -.01078646  00000-0 -62515-1 0  9996","MEAN_ANOMALY":"313.6561","ECCENTRICITY":"0.00015490","OBJECT_ID":"2022-051BC","MEAN_MOTION":"15.14513260","ARG_OF_PERICENTER":"43.9617","MEAN_MOTION_DOT":"-0.01078646","INCLINATION":"53.2174","REF_FRAME":"TEME","OBJECT_NAME":"STARLINK-3910","COUNTRY_CODE":"US","OBJECT_TYPE":"PAYLOAD","CLASSIFICATION_TYPE":"U","EPHEMERIS_TYPE":"0","LAUNCH_DATE":"2022-05-13","MEAN_MOTION_DDOT":"0.0000000000000","SITE":"AFWTR","CENTER_NAME":"EARTH"},{"OBJECT_ID":"2022-051BD","ECCENTRICITY":"0.00017140","ARG_OF_PERICENTER":"37.5169","MEAN_MOTION":"15.15103378","MEAN_MOTION_DOT":"-0.01078080","REF_FRAME":"TEME","INCLINATION":"53.2174","OBJECT_NAME":"STARLINK-3867","COUNTRY_CODE":"US","OBJECT_TYPE":"PAYLOAD","CLASSIFICATION_TYPE":"U","EPHEMERIS_TYPE":"0","LAUNCH_DATE":"2022-05-13","SITE":"AFWTR","MEAN_MOTION_DDOT":"0.0000000000000","CENTER_NAME":"EARTH","RCS_SIZE":"LARGE","RA_OF_ASC_NODE":"292.8196","FILE":"3522469","TIME_SYSTEM":"UTC","GP_ID":"208932620","APOAPSIS":"521.849","MEAN_ELEMENT_THEORY":"SGP4","BSTAR":"-0.06143800000000","REV_AT_EPOCH":"130","SEMIMAJOR_AXIS":"6898.802","TLE_LINE2":"2 52587  53.2174 292.8196 0001714  37.5169 354.5351 15.15103378  1306","EPOCH":"2022-07-26T22:00:00.999936","DECAY_DATE":null,"PERIAPSIS":"519.484","PERIOD":"95.043","NORAD_CAT_ID":"52587","ELEMENT_SET_NO":"999","TLE_LINE1":"1 52587U 22051BD  22207.91667824 -.01078080  00000-0 -61438-1 0  9992","MEAN_ANOMALY":"354.5351"},{"ARG_OF_PERICENTER":"37.6901","MEAN_MOTION":"15.15398386","OBJECT_ID":"2022-051BE","ECCENTRICITY":"0.00017330","MEAN_MOTION_DOT":"-0.01077650","OBJECT_NAME":"STARLINK-3917","COUNTRY_CODE":"US","REF_FRAME":"TEME","INCLINATION":"53.2175","CLASSIFICATION_TYPE":"U","EPHEMERIS_TYPE":"0","OBJECT_TYPE":"PAYLOAD","MEAN_MOTION_DDOT":"0.0000000000000","SITE":"AFWTR","LAUNCH_DATE":"2022-05-13","CENTER_NAME":"EARTH","GP_ID":"208932030","APOAPSIS":"520.967","RCS_SIZE":"LARGE","RA_OF_ASC_NODE":"292.8206","TIME_SYSTEM":"UTC","FILE":"3522469","MEAN_ELEMENT_THEORY":"SGP4","SEMIMAJOR_AXIS":"6897.906","TLE_LINE2":"2 52588  53.2175 292.8206 0001733  37.6901  11.3724 15.15398386  1303","BSTAR":"-0.06089700000000","REV_AT_EPOCH":"130","DECAY_DATE":null,"EPOCH":"2022-07-26T22:00:00.999936","PERIOD":"95.025","NORAD_CAT_ID":"52588","PERIAPSIS":"518.576","TLE_LINE1":"1 52588U 22051BE  22207.91667824 -.01077650  00000-0 -60897-1 0  9993","ELEMENT_SET_NO":"999","MEAN_ANOMALY":"11.3724"}];
